STARLETTE               
1 07646U 75010A   20138.20678244 -.00000145  00000-0 -28453-5 0  9992
2 07646  49.8246 234.8002 0205702 282.9095  74.8896 13.82307610287187
LAGEOS 1                
1 08820U 76039A   20137.79309618  .00000027  00000-0  00000-0 0  9998
2 08820 109.8221 138.1070 0044299  57.1304  81.9209  6.38664700771522
AJISAI (EGS)            
1 16908U 86061A   20138.24792949 -.00000087  00000-0  70479-4 0  9992
2 16908  50.0066 139.6382 0011400 284.9460  93.5820 12.44492049203858
COSMOS 1989 (ETALON 1)  
1 19751U 89001C   20137.44462198  .00000093  00000-0  00000+0 0  9993
2 19751  64.1836 148.5651 0022668 211.1017 147.1133  2.13156457244059
COSMOS 2024 (ETALON 2)  
1 20026U 89039C   20137.96826017 -.00000087  00000-0  00000-0 0  9997
2 20026  65.4768  26.2026 0018091 221.2390 321.6581  2.13204479241122
LAGEOS 2                
1 22195U 92070B   20138.05448025 -.00000009  00000-0  00000-0 0  9999
2 22195  52.6468 231.0143 0137845 295.4126   0.7872  6.47293992651774
STELLA                  
1 22824U 93061B   20138.21007240 -.00000033  00000-0  54690-5 0  9993
2 22824  98.9602 128.2633 0006148 188.9217 233.6738 14.27380516387786
LARES                   
1 38077U 12006A   20138.27137489 -.00000029  00000-0  56833-4 0  9990
2 38077  69.4885 127.4714 0009915 324.7134  35.3244 12.54931277378405
